[
    {
        "CCSDS_OMM_VERS": "3.0",
        "COMMENT": "GENERATED VIA SPACE-TRACK.ORG API",
        "CREATION_DATE": "2025-05-10T01:36:49",
        "ORIGINATOR": "18 SPCS",
        "OBJECT_NAME": "COSMOS 482 DESCENT CRAFT",
        "OBJECT_ID": "1972-023E",
        "CENTER_NAME": "EARTH",
        "REF_FRAME": "TEME",
        "TIME_SYSTEM": "UTC",
        "MEAN_ELEMENT_THEORY": "SGP4",
        "EPOCH": "2025-05-10T00:35:56.062752",
        "MEAN_MOTION": "16.48653575",
        "ECCENTRICITY": "0.00353900",
        "INCLINATION": "51.9455",
        "RA_OF_ASC_NODE": "241.9030",
        "ARG_OF_PERICENTER": "103.6551",
        "MEAN_ANOMALY": "63.6433",
        "EPHEMERIS_TYPE": "0",
        "CLASSIFICATION_TYPE": "U",
        "NORAD_CAT_ID": "6073",
        "ELEMENT_SET_NO": "999",
        "REV_AT_EPOCH": "75131",
        "BSTAR": "0.00006584900000",
        "MEAN_MOTION_DOT": "0.08088373",
        "MEAN_MOTION_DDOT": "0.0000125420000",
        "SEMIMAJOR_AXIS": "6521.021",
        "PERIOD": "87.344",
        "APOAPSIS": "165.963",
        "PERIAPSIS": "119.808",
        "OBJECT_TYPE": "PAYLOAD",
        "RCS_SIZE": "MEDIUM",
        "COUNTRY_CODE": "CIS",
        "LAUNCH_DATE": "1972-03-31",
        "SITE": "TTMTR",
        "DECAY_DATE": "2025-05-10",
        "FILE": "4723966",
        "GP_ID": "287153777",
        "TLE_LINE0": "0 COSMOS 482 DESCENT CRAFT",
        "TLE_LINE1": "1  6073U 72023E   25130.02495443  .08088373  12542-4  65849-4 0  9993",
        "TLE_LINE2": "2  6073  51.9455 241.9030 0035390 103.6551  63.6433 16.48653575751319"
    }
]